{"fetched_at":"2026-03-29T02:12:04Z","count":15717,"tles":[{"name":"STARLINK-30465","line1":"1 57891U 23146A   26087.61061679  .00009694  00000+0  37044-3 0  9993","line2":"2 57891  42.9981 207.0325 0001381 262.0592  98.0102 15.26754156139952","category":"Starlink"}]}